[{"OBJECT_NAME":"FLOCK 4Q-7","OBJECT_ID":"2023-174BQ","EPOCH":"2026-03-05T17:50:21.741216","MEAN_MOTION":15.48903557,"ECCENTRICITY":0.00079894,"INCLINATION":97.3939,"RA_OF_ASC_NODE":153.2281,"ARG_OF_PERICENTER":151.7556,"MEAN_ANOMALY":208.4129,"EPHEMERIS_TYPE":0,"CLASSIFICATION_TYPE":"U","NORAD_CAT_ID":58318,"ELEMENT_SET_NO":999,"REV_AT_EPOCH":12970,"BSTAR":0.00068104473,"MEAN_MOTION_DOT":0.00036796,"MEAN_MOTION_DDOT":0},{"OBJECT_NAME":"FLOCK 4Q-2","OBJECT_ID":"2023-174BS","EPOCH":"2026-03-05T22:04:10.068672","MEAN_MOTION":15.44773235,"ECCENTRICITY":0.00080534,"INCLINATION":97.3868,"RA_OF_ASC_NODE":151.2641,"ARG_OF_PERICENTER":150.2947,"MEAN_ANOMALY":209.8761,"EPHEMERIS_TYPE":0,"CLASSIFICATION_TYPE":"U","NORAD_CAT_ID":58320,"ELEMENT_SET_NO":999,"REV_AT_EPOCH":12963,"BSTAR":0.00063011674,"MEAN_MOTION_DOT":0.00029496,"MEAN_MOTION_DDOT":0},{"OBJECT_NAME":"FLOCK 4Q-9","OBJECT_ID":"2023-174BU","EPOCH":"2026-03-05T17:50:21.668640","MEAN_MOTION":15.44424995,"ECCENTRICITY":0.00081012,"INCLINATION":97.3905,"RA_OF_ASC_NODE":151.1286,"ARG_OF_PERICENTER":152.0904,"MEAN_ANOMALY":208.078,"EPHEMERIS_TYPE":0,"CLASSIFICATION_TYPE":"U","NORAD_CAT_ID":58322,"ELEMENT_SET_NO":999,"REV_AT_EPOCH":12959,"BSTAR":0.00061912705,"MEAN_MOTION_DOT":0.00028636,"MEAN_MOTION_DDOT":0},{"OBJECT_NAME":"FLOCK 4Q-4","OBJECT_ID":"2023-174BZ","EPOCH":"2026-03-05T17:51:12.883104","MEAN_MOTION":15.4404428,"ECCENTRICITY":0.00075141,"INCLINATION":97.3861,"RA_OF_ASC_NODE":150.5071,"ARG_OF_PERICENTER":169.2622,"MEAN_ANOMALY":190.8788,"EPHEMERIS_TYPE":0,"CLASSIFICATION_TYPE":"U","NORAD_CAT_ID":58327,"ELEMENT_SET_NO":999,"REV_AT_EPOCH":12957,"BSTAR":0.00058244402,"MEAN_MOTION_DOT":0.00026578,"MEAN_MOTION_DDOT":0},{"OBJECT_NAME":"FLOCK 4Q-13","OBJECT_ID":"2023-174CA","EPOCH":"2026-03-05T17:17:21.578496","MEAN_MOTION":15.46700908,"ECCENTRICITY":0.00075273,"INCLINATION":97.4024,"RA_OF_ASC_NODE":152.8771,"ARG_OF_PERICENTER":164.2081,"MEAN_ANOMALY":195.9405,"EPHEMERIS_TYPE":0,"CLASSIFICATION_TYPE":"U","NORAD_CAT_ID":58328,"ELEMENT_SET_NO":999,"REV_AT_EPOCH":12965,"BSTAR":0.00068620753,"MEAN_MOTION_DOT":0.00034333,"MEAN_MOTION_DDOT":0},{"OBJECT_NAME":"FLOCK 4Q-21","OBJECT_ID":"2023-174CB","EPOCH":"2026-03-05T17:16:53.942592","MEAN_MOTION":15.56947704,"ECCENTRICITY":0.00057815,"INCLINATION":97.3938,"RA_OF_ASC_NODE":155.9013,"ARG_OF_PERICENTER":169.4633,"MEAN_ANOMALY":190.6745,"EPHEMERIS_TYPE":0,"CLASSIFICATION_TYPE":"U","NORAD_CAT_ID":58329,"ELEMENT_SET_NO":999,"REV_AT_EPOCH":12987,"BSTAR":0.00083982887,"MEAN_MOTION_DOT":0.00060786,"MEAN_MOTION_DDOT":0},{"OBJECT_NAME":"FLOCK 4BE-18","OBJECT_ID":"2024-149N","EPOCH":"2026-03-05T17:01:14.852352","MEAN_MOTION":15.38084946,"ECCENTRICITY":0.00031444,"INCLINATION":97.3781,"RA_OF_ASC_NODE":147.6162,"ARG_OF_PERICENTER":257.6021,"MEAN_ANOMALY":102.4873,"EPHEMERIS_TYPE":0,"CLASSIFICATION_TYPE":"U","NORAD_CAT_ID":60480,"ELEMENT_SET_NO":999,"REV_AT_EPOCH":8638,"BSTAR":0.00065139362,"MEAN_MOTION_DOT":0.00024385,"MEAN_MOTION_DDOT":0},{"OBJECT_NAME":"FLOCK 4BE-7","OBJECT_ID":"2024-149P","EPOCH":"2026-03-05T15:40:47.873568","MEAN_MOTION":15.36109334,"ECCENTRICITY":0.00021007,"INCLINATION":97.3811,"RA_OF_ASC_NODE":147.1581,"ARG_OF_PERICENTER":247.763,"MEAN_ANOMALY":112.3391,"EPHEMERIS_TYPE":0,"CLASSIFICATION_TYPE":"U","NORAD_CAT_ID":60481,"ELEMENT_SET_NO":999,"REV_AT_EPOCH":8633,"BSTAR":0.00053847035,"MEAN_MOTION_DOT":0.00018885,"MEAN_MOTION_DDOT":0},{"OBJECT_NAME":"FLOCK 4BE-26","OBJECT_ID":"2024-149S","EPOCH":"2026-03-05T17:42:00.942624","MEAN_MOTION":15.43399307,"ECCENTRICITY":0.00057982,"INCLINATION":97.377,"RA_OF_ASC_NODE":147.5355,"ARG_OF_PERICENTER":253.0413,"MEAN_ANOMALY":107.02,"EPHEMERIS_TYPE":0,"CLASSIFICATION_TYPE":"U","NORAD_CAT_ID":60484,"ELEMENT_SET_NO":999,"REV_AT_EPOCH":8638,"BSTAR":0.0022395654,"MEAN_MOTION_DOT":0.00101168,"MEAN_MOTION_DDOT":0},{"OBJECT_NAME":"FLOCK 4BE-36","OBJECT_ID":"2024-149U","EPOCH":"2026-03-05T17:46:21.031680","MEAN_MOTION":15.38950356,"ECCENTRICITY":0.00028003,"INCLINATION":97.3791,"RA_OF_ASC_NODE":148.1884,"ARG_OF_PERICENTER":271.2842,"MEAN_ANOMALY":88.8082,"EPHEMERIS_TYPE":0,"CLASSIFICATION_TYPE":"U","NORAD_CAT_ID":60486,"ELEMENT_SET_NO":999,"REV_AT_EPOCH":8642,"BSTAR":0.00064378928,"MEAN_MOTION_DOT":0.00024788,"MEAN_MOTION_DDOT":0},{"OBJECT_NAME":"FLOCK 4BE-25","OBJECT_ID":"2024-149V","EPOCH":"2026-03-05T17:33:35.570880","MEAN_MOTION":15.35843948,"ECCENTRICITY":0.00013163,"INCLINATION":97.3847,"RA_OF_ASC_NODE":147.386,"ARG_OF_PERICENTER":236.3898,"MEAN_ANOMALY":123.7221,"EPHEMERIS_TYPE":0,"CLASSIFICATION_TYPE":"U","NORAD_CAT_ID":60487,"ELEMENT_SET_NO":999,"REV_AT_EPOCH":8634,"BSTAR":0.00052909026,"MEAN_MOTION_DOT":0.00018395,"MEAN_MOTION_DDOT":0},{"OBJECT_NAME":"FLOCK 4BE-31","OBJECT_ID":"2024-149W","EPOCH":"2026-03-05T17:04:34.159872","MEAN_MOTION":15.39733608,"ECCENTRICITY":0.00017528,"INCLINATION":97.3846,"RA_OF_ASC_NODE":148.7741,"ARG_OF_PERICENTER":264.0349,"MEAN_ANOMALY":96.0697,"EPHEMERIS_TYPE":0,"CLASSIFICATION_TYPE":"U","NORAD_CAT_ID":60488,"ELEMENT_SET_NO":999,"REV_AT_EPOCH":8643,"BSTAR":0.00069293958,"MEAN_MOTION_DOT":0.00027387,"MEAN_MOTION_DDOT":0},{"OBJECT_NAME":"FLOCK 4BE-20","OBJECT_ID":"2024-149X","EPOCH":"2026-03-05T16:59:31.873920","MEAN_MOTION":15.35124698,"ECCENTRICITY":0.00024737,"INCLINATION":97.3753,"RA_OF_ASC_NODE":146.5007,"ARG_OF_PERICENTER":263.9759,"MEAN_ANOMALY":96.1202,"EPHEMERIS_TYPE":0,"CLASSIFICATION_TYPE":"U","NORAD_CAT_ID":60489,"ELEMENT_SET_NO":999,"REV_AT_EPOCH":8632,"BSTAR":0.00052428475,"MEAN_MOTION_DOT":0.00017814,"MEAN_MOTION_DDOT":0},{"OBJECT_NAME":"FLOCK 4BE-23","OBJECT_ID":"2024-149Y","EPOCH":"2026-03-05T17:44:07.664640","MEAN_MOTION":15.34765528,"ECCENTRICITY":0.0002093,"INCLINATION":97.3831,"RA_OF_ASC_NODE":146.851,"ARG_OF_PERICENTER":275.2827,"MEAN_ANOMALY":84.8177,"EPHEMERIS_TYPE":0,"CLASSIFICATION_TYPE":"U","NORAD_CAT_ID":60490,"ELEMENT_SET_NO":999,"REV_AT_EPOCH":8631,"BSTAR":0.00050399452,"MEAN_MOTION_DOT":0.00016924,"MEAN_MOTION_DDOT":0},{"OBJECT_NAME":"FLOCK 4BE-15","OBJECT_ID":"2024-149Z","EPOCH":"2026-03-05T19:28:33.705408","MEAN_MOTION":15.39666704,"ECCENTRICITY":0.00030656,"INCLINATION":97.3768,"RA_OF_ASC_NODE":147.9503,"ARG_OF_PERICENTER":321.9008,"MEAN_ANOMALY":38.2021,"EPHEMERIS_TYPE":0,"CLASSIFICATION_TYPE":"U","NORAD_CAT_ID":60491,"ELEMENT_SET_NO":999,"REV_AT_EPOCH":8642,"BSTAR":0.0020083517,"MEAN_MOTION_DOT":0.0007991,"MEAN_MOTION_DDOT":0},{"OBJECT_NAME":"FLOCK 4BE-17","OBJECT_ID":"2024-149AA","EPOCH":"2026-03-05T17:19:58.639872","MEAN_MOTION":15.36477664,"ECCENTRICITY":0.00021432,"INCLINATION":97.3824,"RA_OF_ASC_NODE":147.5037,"ARG_OF_PERICENTER":253.1805,"MEAN_ANOMALY":106.9205,"EPHEMERIS_TYPE":0,"CLASSIFICATION_TYPE":"U","NORAD_CAT_ID":60492,"ELEMENT_SET_NO":999,"REV_AT_EPOCH":8635,"BSTAR":0.00057084904,"MEAN_MOTION_DOT":0.00020267,"MEAN_MOTION_DDOT":0}]
